[{"OBJECT_NAME":"HAWK-11A","OBJECT_ID":"2024-247F","EPOCH":"2026-03-09T12:17:43.893312","MEAN_MOTION":15.28849427,"ECCENTRICITY":0.00054663,"INCLINATION":44.9941,"RA_OF_ASC_NODE":114.3328,"ARG_OF_PERICENTER":327.3713,"MEAN_ANOMALY":32.6832,"EPHEMERIS_TYPE":0,"CLASSIFICATION_TYPE":"U","NORAD_CAT_ID":62382,"ELEMENT_SET_NO":999,"REV_AT_EPOCH":6774,"BSTAR":0.00034106017,"MEAN_MOTION_DOT":9.457e-5,"MEAN_MOTION_DDOT":0},{"OBJECT_NAME":"STARLINK-35666","OBJECT_ID":"2025-244S","EPOCH":"2026-03-09T17:25:22.518912","MEAN_MOTION":15.30163345,"ECCENTRICITY":0.00010388,"INCLINATION":53.1576,"RA_OF_ASC_NODE":229.841,"ARG_OF_PERICENTER":42.1864,"MEAN_ANOMALY":317.9216,"EPHEMERIS_TYPE":0,"CLASSIFICATION_TYPE":"U","NORAD_CAT_ID":66222,"ELEMENT_SET_NO":999,"REV_AT_EPOCH":2166,"BSTAR":0.00068969153,"MEAN_MOTION_DOT":0.000201,"MEAN_MOTION_DDOT":0}]
